satname,norad_id,inclination_deg,eccentricity,mean_motion_rev_per_day,perigee_km,apogee_km,l1,l2
STARLINK-1297,45395,53.0594,0.000119,15.3302024,465.99270482097927,467.6218015532377,1 45395U 20019AM  26019.66668981  .01085548  00000+0  30690-1 0  9995,2 45395  53.0594   5.4088 0001190  95.6532  61.8981 15.33020240  5794
STARLINK-1307,45397,53.0567,0.0001467,15.35967203,457.04627521407565,459.05201222864343,1 45397U 20019AP  26019.66668981  .01495164  00000+0  38531-1 0  9998,2 45397  53.0567   4.9795 0001467  83.0560 335.2027 15.35967203  5749
STARLINK-1255,45399,53.0487,0.0006208,15.42822404,433.55270786527217,442.01535541815883,1 45399U 20019AR  26019.59558507  .00017891  00000+0  41026-3 0  9995,2 45399  53.0487 337.3516 0006208  70.5173 289.6502 15.42822404322838
STARLINK-1260,45404,53.096,9.8e-05,15.15902879,517.5630123929996,518.9147020610162,1 45404U 20019AW  26019.66668981  .01483318  00000+0  69810-1 0  9999,2 45404  53.0960 356.5261 0000980  91.2674 250.5971 15.15902879  5748
STARLINK-1263,45405,53.0938,0.0001574,15.15776241,517.5374145114247,519.7085145482588,1 45405U 20019AX  26019.66668981  .01450654  00000+0  68663-1 0  9992,2 45405  53.0938 356.5262 0001574  60.8723   2.4255 15.15776241  5642
STARLINK-1265,45406,53.091,8.59e-05,15.14844694,520.8574215148456,522.0427705779457,1 45406U 20019AY  26019.66668981  .01480921  00000+0  71815-1 0  9996,2 45406  53.0910 356.5618 0000859  61.7429 301.3587 15.14844694  5697
STARLINK-1278,45408,53.0499,0.0005075,15.45597411,426.16832526108556,433.0782019286353,1 45408U 20019BA  26019.66668981  .00077464  00000+0  15767-2 0  9996,2 45408  53.0499   5.9168 0005075   4.6788 319.3531 15.45597411  5903
STARLINK-1296,45412,53.0989,0.0001734,15.17044367,513.5837760723007,515.9742393437737,1 45412U 20019BE  26019.66668981  .00036279  00000+0  18181-2 0  9993,2 45412  53.0989 356.3610 0001734  69.7603  25.0532 15.17044367  5798
STARLINK-1298,45413,53.0461,0.0008896,15.73530918,342.83058062328564,354.7991734028674,1 45413U 20019BF  26019.66668981  .00203902  00000+0  13994-2 0  9990,2 45413  53.0461 301.3965 0008896 117.2726 320.7192 15.73530918  5755
STARLINK-1309,45414,53.0712,0.0001289,15.14148244,522.6760010186172,524.455259956756,1 45414U 20019BG  26019.66668981  .01029698  00000+0  51795-1 0  9990,2 45414  53.0712 356.5553 0001289  81.8248 183.4191 15.14148244  5647
STARLINK-1316,45415,53.0903,0.000222,15.14836821,519.942288346123,523.0057156310058,1 45415U 20019BH  26019.66668981  .01515507  00000+0  73360-1 0  9992,2 45415  53.0903 356.5619 0002220  76.1193  46.9664 15.14836821  5794
STARLINK-1318,45416,53.0432,0.0005064,15.79554041,328.3054110093126,335.10113723894483,1 45416U 20019BJ  26019.66668981  .00192332  00000+0  10151-2 0  9999,2 45416  53.0432 288.8432 0005064 130.2946 243.5306 15.79554041  5980
STARLINK-1286,45417,53.0514,0.000247,15.46867099,424.21689368027273,427.5780867184312,1 45417U 20019BK  26019.66668981  .00016307  00000+0  32710-3 0  9993,2 45417  53.0514   5.5935 0002470  15.8937 167.5317 15.46867099  5655
STARLINK-1308,45419,53.0579,0.0001317,15.31025496,471.8491326893745,473.65365669253606,1 45419U 20019BM  26019.41078636  .00010691  00000+0  36324-3 0  9995,2 45419  53.0579  26.2821 0001317  91.2452 268.8699 15.31025496322067
STARLINK-1329,45531,53.0558,0.0006954,15.46091267,423.4403778835831,432.90659450778367,1 45531U 20025A   26019.54120803  .00069517  00000+0  13930-2 0  9993,2 45531  53.0558 317.5452 0006954  78.8773 281.3015 15.46091267317829
STARLINK-1338,45532,53.0552,0.0005084,15.44877384,428.2762381773082,435.2005194624926,1 45532U 20025B   26019.66668981  .00103759  00000+0  21541-2 0  9995,2 45532  53.0552 319.8778 0005084 101.1310 121.2584 15.44877384  5838
STARLINK-1350,45535,53.0728,0.0002196,15.34663892,460.4169336652976,463.42108626487516,1 45535U 20025E   26019.38585173  .00010713  00000+0  32502-3 0  9995,2 45535  53.0728 264.4510 0002196 109.8265 250.2974 15.34663892318581
STARLINK-1362,45538,53.0561,0.0001367,15.06407732,546.2411686648093,548.1345524816907,1 45538U 20025H   26019.57039157  .00002414  00000+0  18088-3 0  9997,2 45538  53.0561 326.8431 0001367  90.6155 269.4991 15.06407732317698
STARLINK-1368,45540,53.0558,0.0001349,15.06401896,546.2715182408783,548.1399757140134,1 45540U 20025K   26019.57506015  .00001036  00000+0  88453-4 0  9995,2 45540  53.0558 327.1023 0001349  87.5800 272.5344 15.06401896317681
STARLINK-1371,45542,53.0532,0.0003155,15.40030413,443.8664514231041,448.1724941574348,1 45542U 20025M   26019.53576299  .00063511  00000+0  15631-2 0  9996,2 45542  53.0532 322.9579 0003155  98.2299 261.9063 15.40030413317740
STARLINK-1372,45543,53.057,0.0001587,15.0641231,546.0747829894726,548.2728766468572,1 45543U 20025N   26019.58241611  .00000251  00000+0  35756-4 0  9993,2 45543  53.0570 327.0689 0001587  87.6641 272.4529 15.06412310316780
STARLINK-1373,45544,53.0558,0.0003293,15.41138925,440.5006391397237,444.99287318153074,1 45544U 20025P   26019.24086320  .00037707  00000+0  90158-3 0  9993,2 45544  53.0558 324.7896 0003293  91.9234 268.2148 15.41138925317690
STARLINK-1294,45551,53.0376,0.0003591,15.7759401,334.8482419793563,339.6712399187063,1 45551U 20025W   26019.29995878  .00145344  00000+0  84361-3 0  9999,2 45551  53.0376 226.3283 0003591 225.0474 135.0255 15.77594010319085
STARLINK-1325,45554,53.0383,0.0006487,15.9812117,275.31283384386643,283.9506229921144,1 45554U 20025Z   26019.66668981  .00392186  74880-4  83505-3 0  9994,2 45554  53.0383 211.7956 0006487 192.7809 164.6551 15.98121170  6019
STARLINK-1327,45555,53.0541,0.0003468,15.44122069,431.5964859181058,436.3213556487608,1 45555U 20025AA  26019.48658548  .00077748  00000+0  16642-2 0  9992,2 45555  53.0541 302.3600 0003468 107.4226 252.7159 15.44122069318020
STARLINK-1356,45564,53.0527,0.0001089,15.27689874,481.97296613584876,483.4672608151641,1 45564U 20025AK  26019.66668981  .01955026  00000+0  64485-1 0  9996,2 45564  53.0527 305.8336 0001089 103.2505 106.5374 15.27689874  5693
STARLINK-1357,45565,53.0582,0.0005755,15.45408476,426.25992528913594,434.09629598147785,1 45565U 20025AL  26019.39780580  .00022265  00000+0  46562-3 0  9994,2 45565  53.0582 274.6166 0005755 103.1272 257.0376 15.45408476318411
STARLINK-1361,45567,53.0565,0.0001409,15.2192332,499.0705372144603,501.00880740071716,1 45567U 20025AN  26019.66668981  .01046122  00000+0  42071-1 0  9994,2 45567  53.0565 306.0763 0001409  91.3919 254.3529 15.21923320  5805
STARLINK-1363,45568,53.0476,0.0001258,15.62695526,379.02437854975324,380.72469425231066,1 45568U 20025AP  26019.66668981  .00170011  00000+0  18281-2 0  9996,2 45568  53.0476 280.1361 0001258  89.5175 176.9895 15.62695526  5925
STARLINK-1366,45569,53.0484,0.0001295,15.62577508,379.33960393443704,381.09001705335413,1 45569U 20025AQ  26019.66668981  .00435198  00000+0  45395-2 0  9993,2 45569  53.0484 280.7575 0001295  96.1046 158.9375 15.62577508  5865
STARLINK-1376,45570,53.1612,0.0001321,15.29355199,476.83299281904783,478.6443151668336,1 45570U 20025AR  26019.51030271  .00000459  00000+0  28245-4 0  9999,2 45570  53.1612 305.9438 0001321  81.6391 278.4760 15.29355199317978
STARLINK-1320,45572,53.0524,0.0007114,15.56933619,391.71815207303644,401.35715917305606,1 45572U 20025AT  26019.00509999  .00118601  00000+0  15990-2 0  9993,2 45572  53.0524 228.9266 0007114 158.9452 201.1853 15.56933619319030
STARLINK-1321,45573,53.0541,0.0003333,15.40373478,442.73205141108156,447.2803586715627,1 45573U 20025AU  26019.04917536  .00062257  00000+0  15154-2 0  9995,2 45573  53.0541 294.5704 0003333 103.0499 257.0877 15.40373478317798
STARLINK-1331,45578,53.0555,0.0001261,15.12151725,528.7681788363043,530.5103200064077,1 45578U 20025AZ  26019.46796037  .00025610  00000+0  14801-2 0  9997,2 45578  53.0555 297.3613 0001261  85.9808 274.1328 15.12151725318103
STARLINK-1333,45580,53.1558,0.0001607,15.29329721,476.7130463609583,478.91654926877527,1 45580U 20025BB  26019.66668981  .00053222  00000+0  18450-2 0  9992,2 45580  53.1558 305.4764 0001607  91.3244  64.4625 15.29329721  5796
STARLINK-1335,45581,53.0522,0.0001408,15.0639216,546.2604940531419,548.2106789735044,1 45581U 20025BC  26019.50042309  .00006266  00000+0  43924-3 0  9997,2 45581  53.0522 297.4382 0001408  87.5106 272.6045 15.06392160318097
STARLINK-1337,45582,53.054,0.0001766,15.17623069,511.8096397067975,514.2435986970995,1 45582U 20025BD  26019.66668981  .00091077  00000+0  44325-2 0  9994,2 45582  53.0540 296.1759 0001766  97.8668 232.8920 15.17623069  5805
STARLINK-1347,45586,53.0506,0.0005798,15.44229572,429.69329354774163,437.5922333614426,1 45586U 20025BH  26019.38859481  .00021326  00000+0  46458-3 0  9994,2 45586  53.0506 265.7163 0005798 109.6564 250.5068 15.44229572318525
STARLINK-1364,45589,53.0553,0.0001448,15.22055773,498.6447271962197,500.6365315976918,1 45589U 20025BL  26019.66668981  .01081942  00000+0  43229-1 0  9993,2 45589  53.0553 296.0165 0001448  98.6606 293.2885 15.22055773  5802
STARLINK-1365,45590,53.0556,0.0001626,15.27449452,482.3243391321921,484.55572398285403,1 45590U 20025BM  26019.66668981  .01939839  00000+0  64507-1 0  9994,2 45590  53.0556 325.8608 0001626  84.0517 301.0643 15.27449452  5792
STARLINK-1443,45660,53.0549,0.0001376,15.06405733,546.2410616308707,548.1469127185401,1 45660U 20035D   26019.12906237 -.00000191  00000+0  60923-5 0  9995,2 45660  53.0549 289.1045 0001376  87.3995 272.7151 15.06405733311268
STARLINK-1446,45663,53.0232,0.0005837,15.40427048,440.86543969670856,448.83059240444527,1 45663U 20035G   26019.60960208  .00014942  00000+0  37268-3 0  9991,2 45663  53.0232 232.1126 0005837 115.8273 244.3333 15.40427048312102
STARLINK-1448,45665,53.0567,0.0001058,15.21467999,500.68400925213246,502.13972179207667,1 45665U 20035J   26019.66668981  .01632910  00000+0  64900-1 0  9995,2 45665  53.0567 286.0986 0001058  73.7739 250.2398 15.21467999  5808
